STARLINK-37736          
1 69226U 26115R   26167.58334491 -.02497114  00000+0 -39754-1 0  9997
2 69226  97.2841 184.9752 0001715  74.4119  38.2334 15.57048569  4595
STARLINK-37737          
1 69227U 26115S   26167.58334491 -.02464454  00000+0 -36688-1 0  9992
2 69227  97.2848 184.9963 0001942  78.8895  83.6335 15.58768133  4613
STARLINK-37618          
1 69228U 26115T   26167.58334491  .00012628  00000+0  23329-3 0  9991
2 69228  97.2843 184.8683 0001818  91.1411 139.5917 15.49210610  4597
STARLINK-37679          
1 69229U 26115U   26167.58334491  .00017423  00000+0  32133-3 0  9993
2 69229  97.2844 184.8742 0000849 105.4709 139.7172 15.49187400  4592
STARLINK-37746          
1 69230U 26115V   26167.58334491 -.00000769  00000+0 -12459-4 0  9992
2 69230  97.2904 184.8554 0001180 135.2894  64.2521 15.49227503  4596
STARLINK-37557          
1 69231U 26115W   26167.58334491  .00020723  00000+0  38165-3 0  9994
2 69231  97.2839 184.7978 0001618 102.5952 318.2334 15.49190882  4594
STARLINK-37745          
1 69232U 26115X   26167.58334491 -.02523217  00000+0 -35581-1 0  9992
2 69232  97.2852 185.0159 0001999  96.7884 118.6980 15.60277004  4599
STARLINK-37739          
1 69233U 26115Y   26167.58334491  .00018115  00000+0  33379-3 0  9990
2 69233  97.2845 184.8520 0001400  70.4500 118.3507 15.49203949  4598
STARLINK-37755          
1 69234U 26115Z   26167.56008723  .00112749  00000+0  74607-3 0  9992
2 69234  97.2825 184.9563 0001387 108.8696 251.2720 15.75213995  4585
TJS-24                  
1 69235U 26116A   26167.66043132 -.00000234  00000+0  00000+0 0  9996
2 69235   0.0094  38.2236 0000306 339.9935 214.7385  1.00272942   225
STARLINK-37665          
1 69238U 26117A   26167.55049454  .00097499  00000+0  46643-3 0  9996
2 69238  53.1580 246.8199 0000869  85.1683 274.9440 15.82025575  2872
STARLINK-37558          
1 69239U 26117B   26167.54954665  .00154963  00000+0  73506-3 0  9993
2 69239  53.1580 246.8131 0001647  73.9798 286.1407 15.82007050  2872
STARLINK-37680          
1 69240U 26117C   26167.54810674  .00109358  00000+0  52225-3 0  9999
2 69240  53.1583 246.8028 0001541  80.3244 279.7953 15.82016151  2879
STARLINK-37742          
1 69241U 26117D   26167.54631975  .00214057  00000+0  10045-2 0  9991
2 69241  53.1582 246.7920 0001061  53.5594 306.5527 15.82064821  2879
STARLINK-37718          
1 69242U 26117E   26167.54508570  .00245835  00000+0  11482-2 0  9990
2 69242  53.1584 246.7826 0000951  77.3810 282.7319 15.82076581  2879
STARLINK-37735          
1 69243U 26117F   26167.54498093  .00128932  00000+0  61357-3 0  9994
2 69243  53.1585 246.7812 0001513  71.6651 288.4537 15.82021833  2876
STARLINK-37757          
1 69244U 26117G   26167.54258857  .00146247  00000+0  69392-3 0  9993
2 69244  53.1583 246.7657 0002064  40.2726 319.8450 15.82027501  2870
STARLINK-37767          
1 69245U 26117H   26167.53832233  .00134566  00000+0  63959-3 0  9993
2 69245  53.1580 246.7357 0001364  54.4912 305.6238 15.82029847  2873
STARLINK-35759          
1 69246U 26117J   26167.53763570  .00153079  00000+0  72511-3 0  9995
2 69246  53.1582 246.7310 0001104  77.2961 282.8185 15.82043309  2870
STARLINK-37238          
1 69247U 26117K   26167.53319552  .00170818  00000+0  80727-3 0  9991
2 69247  53.1578 246.7007 0001469  35.9329 324.1793 15.82038084  2871
STARLINK-37412          
1 69248U 26117L   26167.59300048  .00113032  00000+0  53935-3 0  9994
2 69248  53.1575 246.3606 0001087  84.7472 275.3675 15.82020774  2881
STARLINK-37398          
1 69249U 26117M   26167.53367841  .00182667  00000+0  90661-3 0  9990
2 69249  53.1586 246.7042 0001003  74.7257 285.3876 15.80943889  2872
STARLINK-37499          
1 69250U 26117N   26167.59128177  .00153807  00000+0  72851-3 0  9990
2 69250  53.1576 246.3484 0000903  88.2746 271.8381 15.82042441  2888
STARLINK-37489          
1 69251U 26117P   26167.58950771 -.00022869  00000+0 -10668-3 0  9996
2 69251  53.1578 246.3374 0001092 100.8904 259.2242 15.82030239  2884
STARLINK-37434          
1 69252U 26117Q   26167.58655125  .00111174  00000+0  53056-3 0  9996
2 69252  53.1576 246.3163 0000884  67.5927 292.5189 15.82024569  2880
STARLINK-37368          
1 69253U 26117R   26167.57980289  .00162716  00000+0  76894-3 0  9991
2 69253  53.1577 246.2709 0000967  86.3399 273.7735 15.82064245  2884
STARLINK-37517          
1 69254U 26117S   26167.45213673  .00255465  00000+0  11913-2 0  9999
2 69254  53.1576 246.8949 0000685 108.2180 251.8918 15.82083891  2861
STARLINK-37378          
1 69255U 26117T   26167.57815349  .00200565  00000+0  94245-3 0  9992
2 69255  53.1571 246.2607 0000687  31.2602 328.8462 15.82073429  2885
STARLINK-37396          
1 69256U 26117U   26167.57570474  .00142391  00000+0  67565-3 0  9997
2 69256  53.1571 246.2408 0000670  76.9391 283.1707 15.82040102  2885
