OBJECT_NAME,OBJECT_ID,EPOCH,MEAN_MOTION,ECCENTRICITY,INCLINATION,RA_OF_ASC_NODE,ARG_OF_PERICENTER,MEAN_ANOMALY,EPHEMERIS_TYPE,CLASSIFICATION_TYPE,NORAD_CAT_ID,ELEMENT_SET_NO,REV_AT_EPOCH,BSTAR,MEAN_MOTION_DOT,MEAN_MOTION_DDOT
STARLINK-37736,2026-115R,2026-06-16T14:00:01.000224,15.57048569,.00017154,97.2841,184.9752,74.4119,38.2334,0,U,69226,999,459,-.39753875E-1,-.2497114E-1,0
STARLINK-37737,2026-115S,2026-06-16T14:00:01.000224,15.58768133,.00019428,97.2848,184.9963,78.8895,83.6335,0,U,69227,999,461,-.36688015E-1,-.2464454E-1,0
STARLINK-37618,2026-115T,2026-06-16T14:00:01.000224,15.49210610,.00018188,97.2843,184.8683,91.1411,139.5917,0,U,69228,999,459,.23328827E-3,.12628E-3,0
STARLINK-37679,2026-115U,2026-06-16T14:00:01.000224,15.49187400,.00008498,97.2844,184.8742,105.4709,139.7172,0,U,69229,999,459,.32132522E-3,.17423E-3,0
STARLINK-37746,2026-115V,2026-06-16T14:00:01.000224,15.49227503,.00011806,97.2904,184.8554,135.2894,64.2521,0,U,69230,999,459,-.12459072E-4,-.769E-5,0
STARLINK-37557,2026-115W,2026-06-16T14:00:01.000224,15.49190882,.00016185,97.2839,184.7978,102.5952,318.2334,0,U,69231,999,459,.38165088E-3,.20723E-3,0
STARLINK-37745,2026-115X,2026-06-16T14:00:01.000224,15.60277004,.00019993,97.2852,185.0159,96.7884,118.6980,0,U,69232,999,459,-.355807E-1,-.2523217E-1,0
STARLINK-37739,2026-115Y,2026-06-16T14:00:01.000224,15.49203949,.00014,97.2845,184.8520,70.4500,118.3507,0,U,69233,999,459,.33379433E-3,.18115E-3,0
STARLINK-37755,2026-115Z,2026-06-16T13:26:31.536672,15.75213995,.00013871,97.2825,184.9563,108.8696,251.2720,0,U,69234,999,458,.74607291E-3,.112749E-2,0
TJS-24,2026-116A,2026-06-16T15:51:01.266048,1.00272942,.0000306,0.0094,38.2236,339.9935,214.7385,0,U,69235,999,22,0,-.234E-5,0
STARLINK-37665,2026-117A,2026-06-16T13:12:42.728256,15.82025575,.00008696,53.1580,246.8199,85.1683,274.9440,0,U,69238,999,287,.46643043E-3,.97499E-3,0
STARLINK-37558,2026-117B,2026-06-16T13:11:20.830560,15.82007050,.00016471,53.1580,246.8131,73.9798,286.1407,0,U,69239,999,287,.73505677E-3,.154963E-2,0
STARLINK-37680,2026-117C,2026-06-16T13:09:16.422336,15.82016151,.0001541,53.1583,246.8028,80.3244,279.7953,0,U,69240,999,287,.52225147E-3,.109358E-2,0
STARLINK-37742,2026-117D,2026-06-16T13:06:42.026400,15.82064821,.00010616,53.1582,246.7920,53.5594,306.5527,0,U,69241,999,287,.10044623E-2,.214057E-2,0
STARLINK-37718,2026-117E,2026-06-16T13:04:55.404480,15.82076581,.00009515,53.1584,246.7826,77.3810,282.7319,0,U,69242,999,287,.11482049E-2,.245835E-2,0
STARLINK-37735,2026-117F,2026-06-16T13:04:46.352352,15.82021833,.00015139,53.1585,246.7812,71.6651,288.4537,0,U,69243,999,287,.61357321E-3,.128932E-2,0
STARLINK-37757,2026-117G,2026-06-16T13:01:19.652448,15.82027501,.00020644,53.1583,246.7657,40.2726,319.8450,0,U,69244,999,287,.69392211E-3,.146247E-2,0
STARLINK-37767,2026-117H,2026-06-16T12:55:11.049312,15.82029847,.0001364,53.1580,246.7357,54.4912,305.6238,0,U,69245,999,287,.63958516E-3,.134566E-2,0
STARLINK-35759,2026-117J,2026-06-16T12:54:11.724480,15.82043309,.00011043,53.1582,246.7310,77.2961,282.8185,0,U,69246,999,287,.72510704E-3,.153079E-2,0
STARLINK-37238,2026-117K,2026-06-16T12:47:48.092928,15.82038084,.00014694,53.1578,246.7007,35.9329,324.1793,0,U,69247,999,287,.80727202E-3,.170818E-2,0
STARLINK-37412,2026-117L,2026-06-16T14:13:55.241472,15.82020774,.00010875,53.1575,246.3606,84.7472,275.3675,0,U,69248,999,288,.53934705E-3,.113032E-2,0
STARLINK-37398,2026-117M,2026-06-16T12:48:29.814624,15.80943889,.00010034,53.1586,246.7042,74.7257,285.3876,0,U,69249,999,287,.90660785E-3,.182667E-2,0
STARLINK-37499,2026-117N,2026-06-16T14:11:26.744928,15.82042441,.00009034,53.1576,246.3484,88.2746,271.8381,0,U,69250,999,288,.72850609E-3,.153807E-2,0
STARLINK-37489,2026-117P,2026-06-16T14:08:53.466144,15.82030239,.0001092,53.1578,246.3374,100.8904,259.2242,0,U,69251,999,288,-.10667569E-3,-.22869E-3,0
STARLINK-37434,2026-117Q,2026-06-16T14:04:38.028000,15.82024569,.00008844,53.1576,246.3163,67.5927,292.5189,0,U,69252,999,288,.53056041E-3,.111174E-2,0
STARLINK-37368,2026-117R,2026-06-16T13:54:54.969696,15.82064245,.00009673,53.1577,246.2709,86.3399,273.7735,0,U,69253,999,288,.76893661E-3,.162716E-2,0
STARLINK-37517,2026-117S,2026-06-16T10:51:04.613472,15.82083891,.00006854,53.1576,246.8949,108.2180,251.8918,0,U,69254,999,286,.11912956E-2,.255465E-2,0
STARLINK-37378,2026-117T,2026-06-16T13:52:32.461536,15.82073429,.00006872,53.1571,246.2607,31.2602,328.8462,0,U,69255,999,288,.94245292E-3,.200565E-2,0
STARLINK-37396,2026-117U,2026-06-16T13:49:00.889536,15.82040102,.00006709,53.1571,246.2408,76.9391,283.1707,0,U,69256,999,288,.67564861E-3,.142391E-2,0
